[{"OBJECT_NAME":"STARLINK-3610","OBJECT_ID":"2022-017AW","EPOCH":"2026-03-09T23:13:28.585344","MEAN_MOTION":15.08831625,"ECCENTRICITY":0.00014559,"INCLINATION":53.2194,"RA_OF_ASC_NODE":327.8761,"ARG_OF_PERICENTER":92.7042,"MEAN_ANOMALY":267.4116,"EPHEMERIS_TYPE":0,"CLASSIFICATION_TYPE":"U","NORAD_CAT_ID":51812,"ELEMENT_SET_NO":999,"REV_AT_EPOCH":22412,"BSTAR":1.6780126e-5,"MEAN_MOTION_DOT":-2.1e-7,"MEAN_MOTION_DDOT":0},{"OBJECT_NAME":"LEMUR-2-THERMORAPTOR","OBJECT_ID":"2025-061D","EPOCH":"2026-03-09T21:59:50.013312","MEAN_MOTION":15.13256334,"ECCENTRICITY":0.00176188,"INCLINATION":97.562,"RA_OF_ASC_NODE":45.6468,"ARG_OF_PERICENTER":235.5571,"MEAN_ANOMALY":124.3996,"EPHEMERIS_TYPE":0,"CLASSIFICATION_TYPE":"U","NORAD_CAT_ID":63354,"ELEMENT_SET_NO":999,"REV_AT_EPOCH":5259,"BSTAR":0.00030402789,"MEAN_MOTION_DOT":5.359e-5,"MEAN_MOTION_DDOT":0}]
